NSS-9                   
1 33749U 09008A   21127.82615297  .00000065  00000-0  00000-0 0  9997
2 33749   0.0188  63.5854 0001941 344.4295 298.3283  1.00270424 44814
EUTELSAT 33E            
1 33750U 09008B   21128.15509705  .00000151  00000-0  00000+0 0  9997
2 33750   0.0633  33.8543 0003923   9.6064 271.6712  1.00274624 44886
TELSTAR 11N             
1 34111U 09009A   21128.42814542 -.00000255  00000-0  00000+0 0  9994
2 34111   0.0238 269.5202 0002523 126.8448 306.6799  1.00268935 44716
EUTELSAT 10A            
1 34710U 09016A   21127.86340271  .00000062  00000-0  00000-0 0  9993
2 34710   0.0709  20.4759 0005415  24.6076 141.6529  1.00272708 22548
WGS F2 (USA 204)        
1 34713U 09017A   21127.62716937  .00000061  00000-0  00000-0 0  9996
2 34713   0.0746  95.5889 0000925 331.2919  82.0715  1.00272842 26901
SES-7 (PROTOSTAR 2)     
1 34941U 09027A   21127.88303078 -.00000351  00000-0  00000-0 0  9999
2 34941   0.0710  90.9030 0001007 265.9607 295.2276  1.00273190 43907
MEASAT-3A               
1 35362U 09032A   21127.87962858 -.00000248  00000-0  00000-0 0  9994
2 35362   0.0303 215.6661 0000321 253.2335 165.1889  1.00274006 43536
GOES 14                 
1 35491U 09033A   21128.59172602 -.00000097  00000-0  00000+0 0  9999
2 35491   0.2100 113.1638 0009794 102.0445 120.1859  1.00272727 43444
FM-5                    
1 35493U 09034A   21127.84421081 -.00000206  00000-0  00000-0 0  9990
2 35493   0.0193 300.6327 0000817  93.5528  49.4799  1.00273671 27938
TERRESTAR-1             
1 35496U 09035A   21128.22332568 -.00000061  00000-0  00000+0 0  9996
2 35496   2.7407  28.2580 0002789  19.8031 147.5970  1.00272173 43443
ASIASAT 5               
1 35696U 09042A   21127.88146053 -.00000313  00000-0  00000-0 0  9990
2 35696   0.0383 103.1129 0001476 290.5170 250.1255  1.00269509 42978
JCSAT-RA (JCSAT-12)     
1 35755U 09044A   21127.82336142 -.00000038  00000-0  00000-0 0  9996
2 35755   0.0461 114.0256 0002354 310.0512 267.1059  1.00270782 42893
OPTUS D3                
1 35756U 09044B   21127.85199083 -.00000153  00000-0  00000-0 0  9999
2 35756   0.0422  24.1434 0004048  12.9888 291.4859  1.00272513 42843
PALAPA D                
1 35812U 09046A   21127.43414220 -.00000226  00000-0  00000-0 0  9992
2 35812   0.8778 106.2492 0021908 334.9322 279.0640  0.98749241 42953
NIMIQ 5                 
1 35873U 09050A   21128.21075523 -.00000262  00000-0  00000+0 0  9999
2 35873   0.0588  85.0182 0003066 350.2672 154.1348  1.00273379 42636
AMAZONAS 2              
1 35942U 09054A   21128.45601448 -.00000286  00000-0  00000+0 0  9993
2 35942   0.0661 105.9762 0004101 346.6898 237.0122  1.00271574 42479
COMSATBW-1              
1 35943U 09054B   21127.87793149  .00000018  00000-0  00000-0 0  9992
2 35943   0.0572  84.5797 0003978 351.4938 168.8990  1.00273288 42592
NSS-12                  
1 36032U 09058A   21127.87273694  .00000065  00000-0  00000-0 0  9996
2 36032   0.0164 313.2306 0002505  96.3784 187.4983  1.00273272 42206
THOR 6                  
1 36033U 09058B   21128.14837987 -.00000015  00000-0  00000+0 0  9994
2 36033   0.0250 148.0221 0001748 247.5747 243.1852  1.00270568 42255
INTELSAT 14 (IS-14)     
1 36097U 09064A   21127.85241097 -.00000279  00000-0  00000-0 0  9992
2 36097   0.0118 248.6046 0002463 155.8590  83.3213  1.00271980 41907
EUTELSAT 36B            
1 36101U 09065A   21127.86854962  .00000149  00000-0  00000+0 0  9995
2 36101   0.0721  20.8403 0005362  34.9024 158.7305  1.00273315 42094
INTELSAT 15 (IS-15)     
1 36106U 09067A   21127.92804051 -.00000192  00000-0  00000-0 0  9993
2 36106   0.0148 296.1952 0002219 109.2377 239.7800  1.00273210 22513
WGS F3 (USA 211)        
1 36108U 09068A   21127.85319610 -.00000265  00000-0  00000-0 0  9991
2 36108   0.0108 117.6013 0000281  66.6430 307.6245  0.99425703 27908
DIRECTV 12              
1 36131U 09075A   21127.55386421 -.00000111  00000-0  00000-0 0  9996
2 36131   0.0384 106.0942 0000077 320.7109 255.4830  1.00272209 27840
BEIDOU 3                
1 36287U 10001A   21128.61772926 -.00000284  00000-0  00000+0 0  9996
2 36287   1.8156  44.9156 0004755  75.5167 108.9748  1.00271783 41450
RADUGA-1M 2             
1 36358U 10002A   21127.16577249 -.00000193  00000-0  00000+0 0  9995
2 36358   0.0641 255.3388 0002656 186.6105 287.9498  1.00273022 41298
SDO                     
1 36395U 10005A   21127.98457334 -.00000037  00000-0  00000+0 0  9998
2 36395  30.8948 115.8641 0001489 295.6767  67.2206  1.00273489 41327
INTELSAT 16 (IS-16)     
1 36397U 10006A   21128.20743351 -.00000249  00000-0  00000+0 0  9999
2 36397   0.0192 288.5662 0001972 117.9711 178.1898  1.00272879 41008
GOES 15                 
1 36411U 10008A   21128.62087378  .00000051  00000-0  00000+0 0  9994
2 36411   0.0753 186.5502 0004488 212.0439 283.6484  1.00262721 40958
ECHOSTAR 14             
1 36499U 10010A   21127.63596012 -.00000007  00000-0  00000-0 0  9996
2 36499   0.0142 268.6105 0002650 136.6947 290.4331  1.00272048 27844
SES-1                   
1 36516U 10016A   21128.23214292 -.00000119  00000-0  00000+0 0  9999
2 36516   0.0537  87.2814 0002503 323.5194 158.0541  1.00272286 40427
ASTRA 3B                
1 36581U 10021A   21127.86610701  .00000131  00000-0  00000-0 0  9994
2 36581   0.0540  59.2202 0003337 349.2982 152.7034  1.00272440 40160
COMSATBW-2              
1 36582U 10021B   21128.15117142  .00000083  00000-0  00000+0 0  9994
2 36582   0.0164 266.9320 0002620 160.6964 226.1771  1.00268697 40275
BADR-5                  
1 36592U 10025A   21128.20118896  .00000140  00000-0  00000+0 0  9996
2 36592   0.0427  93.9944 0003522 353.2750 237.4200  1.00269243 40194
COMS 1                  
1 36744U 10032A   21127.81516125 -.00000350  00000-0  00000-0 0  9991
2 36744   0.1038  94.9673 0000715 316.4547 236.0685  1.00273209 32378
ARABSAT-5A              
1 36745U 10032B   21127.86750278  .00000147  00000-0  00000-0 0  9999
2 36745   0.0696  48.7628 0003877  28.0902 131.8519  1.00272453 39935
ECHOSTAR 15             
1 36792U 10034A   21128.45601483 -.00000285  00000-0  00000+0 0  9995
2 36792   0.0129  91.7645 0002091 283.2702 313.9805  1.00273710 39696
BEIDOU 5                
1 36828U 10036A   21127.84831464 -.00000086  00000-0  00000-0 0  9993
2 36828  54.1708 179.9678 0112098 235.0894 235.4835  1.00273591 39508
NILESAT 201             
1 36830U 10037A   21127.86000050 -.00000063  00000-0  00000+0 0  9992
2 36830   0.0626 129.5217 0005633 285.0492 113.9366  1.00272873 39573
RASCOM-QAF 1R           
1 36831U 10037B   21127.86200692  .00000012  00000-0  00000-0 0  9991
2 36831   0.0170 118.9328 0004669 289.1915 131.0050  1.00271553 39582
AEHF-1 (USA 214)        
1 36868U 10039A   21127.79047348  .00000023  00000-0  00000-0 0  9994
2 36868   3.5286  92.4186 0006399 341.3085  80.6522  1.00273435 34946
CHINASAT 6A (ZX 6A)     
1 37150U 10042A   21127.95814088 -.00000359  00000-0  00000+0 0  9996
2 37150   0.0076 227.6409 0002895 306.8937 161.4661  1.00268970 39180
QZS-1 (MICHIBIKI-1)     
1 37158U 10045A   21127.88791598 -.00000079  00000-0  00000+0 0  9998
2 37158  41.9238 139.0230 0756636 270.3986 277.2893  1.00278262 39007
XM-5                    
1 37185U 10053A   21128.44442571 -.00000209  00000-0  00000+0 0  9999
2 37185   0.0149 235.4999 0005049 355.2028  70.6079  1.00272065 38737
BSAT-3B                 
1 37207U 10056B   21128.46160635 -.00000354  00000-0  00000+0 0  9998
2 37207   0.0455 335.8368 0002623  15.8677 150.8363  1.00274361 38560
BEIDOU 6                
1 37210U 10057A   21128.55462674 -.00000115  00000-0  00000+0 0  9996
2 37210   0.7822  43.1676 0002300 133.2729  49.7747  1.00272465 38571
SKYTERRA 1              
1 37218U 10061A   21127.84124479 -.00000123  00000-0  00000-0 0  9998
2 37218   2.1459  15.3637 0003392 354.2810  57.7745  1.00271599 38481
ZHONGXING-20A           
1 37234U 10064A   21128.71786589 -.00000351  00000-0  00000+0 0  9994
2 37234   1.6495  93.1115 0003167 357.4762 160.9234  1.00274486 38320
HYLAS 1                 
1 37237U 10065A   21127.89088201 -.00000167  00000-0  00000-0 0  9998
2 37237   0.9125  94.0883 0001543  57.0599 183.4136  1.00551265 38261
INTELSAT 17 (IS-17)     
1 37238U 10065B   21128.12276639 -.00000006  00000-0  00000+0 0  9991
2 37238   0.0226 181.8909 0002481 229.5386 284.9419  1.00270307 38212
BEIDOU 7                
1 37256U 10068A   21128.24910661 -.00000228  00000-0  00000+0 0  9993
2 37256  50.9319 294.4725 0083489 215.2892 285.6756  1.00267254 38081
EUTELSAT KA-SAT 9A      
1 37258U 10069A   21127.86322823  .00000055  00000-0  00000-0 0  9998
2 37258   0.0563 280.1100 0005194 181.6799  83.9038  1.00269520 25297
HISPASAT 30W-5          
1 37264U 10070A   21128.42945396 -.00000220  00000-0  00000+0 0  9990
2 37264   0.0593  94.6174 0004450 342.4549 274.0222  1.00272631 37951
KOREASAT 6              
1 37265U 10070B   21128.02688097 -.00000367  00000-0  00000+0 0  9991
2 37265   0.0113 308.4329 0002112 124.0849 279.2133  1.00275114 37977
BEIDOU 8                
1 37384U 11013A   21128.61067155 -.00000220  00000-0  00000+0 0  9990
2 37384  59.7256  58.3059 0052580 207.0278 300.1356  1.00264503 36960
INTELSAT NEW DAWN       
1 37392U 11016A   21127.86793896  .00000150  00000-0  00000-0 0  9998
2 37392   0.0189 246.6934 0000488 153.1445 171.3431  1.00273902 34585
YAHSAT 1A               
1 37393U 11016B   21128.08722752  .00000096  00000-0  00000+0 0  9995
2 37393   0.0206 272.4560 0001905 167.9611 229.6086  1.00270277 36847
SBIRS GEO-1 (USA 230)   
1 37481U 11019A   21127.87456889 -.00000017  00000-0  00000-0 0  9992
2 37481   1.8290 359.9285 0001928  50.9328 196.1112  1.00272117 36688
TELSTAR 14R             
1 37602U 11021A   21127.84883431 -.00000286  00000-0  00000-0 0  9992
2 37602   0.0243 317.5509 0002774  88.5658  62.3523  1.00271650 37114
